[{"OBJECT_NAME":"THEA","OBJECT_ID":"2018-099AQ","EPOCH":"2026-03-09T22:33:02.658240","MEAN_MOTION":15.31454284,"ECCENTRICITY":0.00065849,"INCLINATION":97.4542,"RA_OF_ASC_NODE":137.8815,"ARG_OF_PERICENTER":275.4664,"MEAN_ANOMALY":84.5826,"EPHEMERIS_TYPE":0,"CLASSIFICATION_TYPE":"U","NORAD_CAT_ID":43796,"ELEMENT_SET_NO":999,"REV_AT_EPOCH":39748,"BSTAR":0.00074635274,"MEAN_MOTION_DOT":0.00022649,"MEAN_MOTION_DDOT":0},{"OBJECT_NAME":"STARLINK-34727","OBJECT_ID":"2025-161L","EPOCH":"2026-03-09T21:16:53.775264","MEAN_MOTION":15.30191467,"ECCENTRICITY":0.00011386,"INCLINATION":53.1584,"RA_OF_ASC_NODE":293.0315,"ARG_OF_PERICENTER":82.1949,"MEAN_ANOMALY":277.9181,"EPHEMERIS_TYPE":0,"CLASSIFICATION_TYPE":"U","NORAD_CAT_ID":65025,"ELEMENT_SET_NO":999,"REV_AT_EPOCH":3538,"BSTAR":0.00045058397,"MEAN_MOTION_DOT":0.00013006,"MEAN_MOTION_DDOT":0}]
